NORAD_CAT_ID,OBJECT_NAME,OBJECT_TYPE,EPOCH,MEAN_MOTION,ECCENTRICITY,INCLINATION,RA_OF_ASC_NODE,ARG_OF_PERICENTER,MEAN_ANOMALY,BSTAR,MEAN_MOTION_DOT,MEAN_MOTION_DDOT,TLE_LINE0,TLE_LINE1,TLE_LINE2,SEMIMAJOR_AXIS,PERIOD,APOGEE,PERIGEE,DECAYED
53630.0,STARLINK-4598,PAYLOAD,2023-02-12 10:32:18,15.08836002,9.73e-05,53.2166,217.6709,87.2831,272.8272,-3.5488e-05,-8.52e-06,0.0,0 STARLINK-4598,1 53630U 22104AU  23043.43910472 -.00000852  00000-0 -35488-4 0  9997,2 53630  53.2166 217.6709 0000973  87.2831 272.8272 15.08836002 25934,6917.893,95.438,540.431,539.084,0.0
53630.0,STARLINK-4598,PAYLOAD,2023-02-12 18:29:13,15.08843303,9.82e-05,53.2165,216.1844,85.8362,274.2743,3.0025e-05,1.9e-06,0.0,0 STARLINK-4598,1 53630U 22104AU  23043.77029847  .00000190  00000-0  30025-4 0  9996,2 53630  53.2165 216.1844 0000982  85.8362 274.2743 15.08843303 25986,6917.87,95.437,540.415,539.056,0.0
53630.0,STARLINK-4598,PAYLOAD,2023-02-13 07:12:19,15.08835352,0.0001039,53.2174,213.8071,89.7567,270.3544,3.5804e-05,2.82e-06,0.0,0 STARLINK-4598,1 53630U 22104AU  23044.30022322  .00000282  00000-0  35804-4 0  9999,2 53630  53.2174 213.8071 0001039  89.7567 270.3544 15.08835352 26067,6917.895,95.438,540.478,539.041,0.0
53630.0,STARLINK-4598,PAYLOAD,2023-02-13 13:33:52,15.08829516,0.0001085,53.2162,212.6149,89.1087,271.0029,-1.4703e-05,-5.22e-06,0.0,0 STARLINK-4598,1 53630U 22104AU  23044.56518906 -.00000522  00000-0 -14703-4 0  9999,2 53630  53.2162 212.6149 0001085  89.1087 271.0029 15.08829516 26969,6917.912,95.438,540.528,539.027,0.0
53630.0,STARLINK-4598,PAYLOAD,2023-02-14 05:27:43,15.08836618,8.55e-05,53.2174,209.6412,81.3156,278.7933,2.5482e-05,1.18e-06,0.0,0 STARLINK-4598,1 53630U 22104AU  23045.22758444  .00000118  00000-0  25482-4 0  9991,2 53630  53.2174 209.6412 0000855  81.3156 278.7933 15.08836618 27067,6917.891,95.438,540.347,539.164,0.0
53630.0,STARLINK-4598,PAYLOAD,2023-02-15 03:43:07,15.0884097,0.0001041,53.2176,205.4794,88.1353,271.9759,1.7038e-05,-1.7e-07,0.0,0 STARLINK-4598,1 53630U 22104AU  23046.15494374 -.00000017  00000-0  17038-4 0  9990,2 53630  53.2176 205.4794 0001041  88.1353 271.9759 15.08840970 26345,6917.877,95.437,540.463,539.022,0.0
53630.0,STARLINK-4598,PAYLOAD,2023-02-15 13:15:25,15.08838171,0.0001254,53.216,203.6939,83.4759,276.6376,8.8389e-05,1.119e-05,0.0,0 STARLINK-4598,1 53630U 22104AU  23046.55238385  .00001119  00000-0  88389-4 0  9992,2 53630  53.2160 203.6939 0001254  83.4759 276.6376 15.08838171 27262,6917.886,95.438,540.618,538.883,0.0
53630.0,STARLINK-4598,PAYLOAD,2023-02-15 16:26:12,15.08837021,8.15e-05,53.2169,203.0995,88.5525,271.5561,8.7884e-05,1.111e-05,0.0,0 STARLINK-4598,1 53630U 22104AU  23046.68486328  .00001111  00000-0  87884-4 0  9999,2 53630  53.2169 203.0995 0000815  88.5525 271.5561 15.08837021 27281,6917.889,95.438,540.318,539.191,0.0
53630.0,STARLINK-4598,PAYLOAD,2023-02-16 13:06:12,15.08863995,8.51e-05,53.2175,199.2333,78.3108,281.798,-0.00028072,-4.755e-05,0.0,0 STARLINK-4598,1 53630U 22104AU  23047.54597763 -.00004755  00000-0 -28072-3 0  9993,2 53630  53.2175 199.2333 0000851  78.3108 281.7980 15.08863995 26550,6917.807,95.436,540.261,539.083,0.0
53630.0,STARLINK-4598,PAYLOAD,2023-02-16 16:16:59,15.08836929,0.000117,53.2163,198.6386,80.553,279.5594,2.3105e-05,8e-07,0.0,0 STARLINK-4598,1 53630U 22104AU  23047.67846724  .00000080  00000-0  23105-4 0  9999,2 53630  53.2163 198.6386 0001170  80.5530 279.5594 15.08836929 26572,6917.89,95.438,540.564,538.945,0.0
53630.0,STARLINK-4598,PAYLOAD,2023-02-17 20:53:55,15.08855864,0.0001187,53.2166,193.2866,69.9594,290.1526,-0.00015384,-2.736e-05,0.0,0 STARLINK-4598,1 53630U 22104AU  23048.87078161 -.00002736  00000-0 -15384-3 0  9995,2 53630  53.2166 193.2866 0001187  69.9594 290.1526 15.08855864 27617,6917.832,95.437,540.518,538.876,0.0
53630.0,STARLINK-4598,PAYLOAD,2023-02-18 19:09:20,15.08837808,0.0001145,53.2168,189.1232,78.0404,282.0716,4.0851e-05,3.62e-06,0.0,0 STARLINK-4598,1 53630U 22104AU  23049.79814856  .00000362  00000-0  40851-4 0  9995,2 53630  53.2168 189.1232 0001145  78.0404 282.0716 15.08837808 26893,6917.887,95.438,540.544,538.96,0.0
53630.0,STARLINK-4598,PAYLOAD,2023-02-19 14:13:57,15.08837182,0.0001261,53.2165,185.5551,82.3431,277.7705,4.7226e-05,4.64e-06,0.0,0 STARLINK-4598,1 53630U 22104AU  23050.59303094  .00000464  00000-0  47226-4 0  9998,2 53630  53.2165 185.5551 0001261  82.3431 277.7705 15.08837182 27874,6917.889,95.438,540.626,538.882,0.0
53630.0,STARLINK-4598,PAYLOAD,2023-02-19 20:35:29,15.08850835,0.0001065,53.2171,184.3666,77.1561,282.955,8.658e-05,1.091e-05,0.0,0 STARLINK-4598,1 53630U 22104AU  23050.85798012  .00001091  00000-0  86580-4 0  9998,2 53630  53.2171 184.3666 0001065  77.1561 282.9550 15.08850835 27059,6917.847,95.437,540.449,538.976,0.0
53630.0,STARLINK-4598,PAYLOAD,2023-02-20 07:43:13,15.08826644,0.0001004,53.2182,182.2837,93.7165,266.3942,-4.2559e-06,-3.55e-06,0.0,0 STARLINK-4598,1 53630U 22104AU  23051.32167944 -.00000355  00000-0 -42559-5 0  9998,2 53630  53.2182 182.2837 0001004  93.7165 266.3942 15.08826644 27125,6917.921,95.438,540.481,539.092,0.0
53630.0,STARLINK-4598,PAYLOAD,2023-02-20 14:04:44,15.08843505,0.0001028,53.2175,181.0956,83.7919,276.3191,7.5846e-06,-1.67e-06,0.0,0 STARLINK-4598,1 53630U 22104AU  23051.58662957 -.00000167  00000-0  75846-5 0  9995,2 53630  53.2175 181.0956 0001028  83.7919 276.3191 15.08843505 28020,6917.87,95.437,540.446,539.024,0.0
53630.0,STARLINK-4598,PAYLOAD,2023-02-20 18:50:53,15.08849455,0.0001082,53.2168,180.2035,77.6901,282.4212,5.6956e-05,6.19e-06,0.0,0 STARLINK-4598,1 53630U 22104AU  23051.78534340  .00000619  00000-0  56956-4 0  9992,2 53630  53.2168 180.2035 0001082  77.6901 282.4212 15.08849455 27193,6917.851,95.437,540.465,538.968,0.0
53630.0,STARLINK-4598,PAYLOAD,2023-02-21 01:12:27,15.08835219,0.000141,53.2173,179.0135,85.0337,275.0816,-3.2157e-06,-3.39e-06,0.0,0 STARLINK-4598,1 53630U 22104AU  23052.05031523 -.00000339  00000-0 -32157-5 0  9997,2 53630  53.2173 179.0135 0001410  85.0337 275.0816 15.08835219 27233,6917.895,95.438,540.735,538.785,0.0
53630.0,STARLINK-4598,PAYLOAD,2023-02-21 12:20:08,15.08844988,0.0001256,53.2172,176.9322,85.9907,274.1228,1.1469e-05,-1.05e-06,0.0,0 STARLINK-4598,1 53630U 22104AU  23052.51398904 -.00000105  00000-0  11469-4 0  9999,2 53630  53.2172 176.9322 0001256  85.9907 274.1228 15.08844988 27304,6917.865,95.437,540.599,538.861,0.0
53630.0,STARLINK-4598,PAYLOAD,2023-02-21 18:41:39,15.08859433,0.0001059,53.2185,175.7411,78.5309,281.5802,0.0001165,1.568e-05,0.0,0 STARLINK-4598,1 53630U 22104AU  23052.77893438  .00001568  00000-0  11650-3 0  9993,2 53630  53.2185 175.7411 0001059  78.5309 281.5802 15.08859433 27344,6917.821,95.436,540.419,538.953,0.0
53630.0,STARLINK-4598,PAYLOAD,2023-02-22 01:03:13,15.08846898,0.0001134,53.2182,174.554,79.6863,280.4257,-4.2567e-05,-9.65e-06,0.0,0 STARLINK-4598,1 53630U 22104AU  23053.04390569 -.00000965  00000-0 -42567-4 0  9995,2 53630  53.2182 174.5540 0001134  79.6863 280.4257 15.08846898 27389,6917.859,95.437,540.509,538.94,0.0
53630.0,STARLINK-4598,PAYLOAD,2023-02-22 12:10:55,15.08835748,0.0001391,53.2168,172.4729,82.9598,277.1552,1.6843e-05,-2e-07,0.0,0 STARLINK-4598,1 53630U 22104AU  23053.50759177 -.00000020  00000-0  16843-4 0  9999,2 53630  53.2168 172.4729 0001391  82.9598 277.1552 15.08835748 28313,6917.893,95.438,540.721,538.796,0.0
53630.0,STARLINK-4598,PAYLOAD,2023-02-22 16:57:04,15.08841215,0.0001466,53.2185,171.5833,72.0426,288.0726,5.2227e-05,5.43e-06,0.0,0 STARLINK-4598,1 53630U 22104AU  23053.70630757  .00000543  00000-0  52227-4 0  9998,2 53630  53.2185 171.5833 0001466  72.0426 288.0726 15.08841215 28344,6917.877,95.437,540.756,538.728,0.0
53630.0,STARLINK-4598,PAYLOAD,2023-02-23 12:01:43,15.08832229,0.0001224,53.2183,168.0147,95.761,264.3522,-4.6608e-05,-1.029e-05,0.0,0 STARLINK-4598,1 53630U 22104AU  23054.50119694 -.00001029  00000-0 -46608-4 0  9997,2 53630  53.2183 168.0147 0001224  95.7610 264.3522 15.08832229 27604,6917.904,95.438,540.616,538.922,0.0
53630.0,STARLINK-4598,PAYLOAD,2023-02-23 16:47:52,15.08841381,0.0001319,53.2179,167.1228,70.7988,289.3147,1.709e-05,-1.6e-07,0.0,0 STARLINK-4598,1 53630U 22104AU  23054.69991031 -.00000016  00000-0  17090-4 0  9997,2 53630  53.2179 167.1228 0001319  70.7988 289.3147 15.08841381 27637,6917.876,95.437,540.654,538.829,0.0
53630.0,STARLINK-4598,PAYLOAD,2023-02-24 11:52:29,15.08838122,0.0001303,53.2178,163.5537,73.6059,286.5076,6.1168e-05,6.86e-06,0.0,0 STARLINK-4598,1 53630U 22104AU  23055.49479077  .00000686  00000-0  61168-4 0  9994,2 53630  53.2178 163.5537 0001303  73.6059 286.5076 15.08838122 28611,6917.886,95.438,540.653,538.85,0.0
53630.0,STARLINK-4598,PAYLOAD,2023-02-24 16:38:38,15.08852319,0.0001292,53.2175,162.6618,74.5444,285.5691,6.6324e-05,7.68e-06,0.0,0 STARLINK-4598,1 53630U 22104AU  23055.69350085  .00000768  00000-0  66324-4 0  9993,2 53630  53.2175 162.6618 0001292  74.5444 285.5691 15.08852319 27786,6917.843,95.437,540.602,538.814,0.0
53630.0,STARLINK-4598,PAYLOAD,2023-02-25 00:35:35,15.08827062,0.0001431,53.2183,161.1752,82.6618,277.4537,5.2259e-05,5.44e-06,0.0,0 STARLINK-4598,1 53630U 22104AU  23056.02471779  .00000544  00000-0  52259-4 0  9999,2 53630  53.2183 161.1752 0001431  82.6618 277.4537 15.08827062 27838,6917.92,95.438,540.775,538.795,0.0
53630.0,STARLINK-4598,PAYLOAD,2023-02-25 13:18:41,15.08832089,0.0001265,53.2194,158.7932,108.084,252.029,-6.5934e-05,-1.337e-05,0.0,0 STARLINK-4598,1 53630U 22104AU  23056.55464165 -.00001337  00000-0 -65934-4 0  9995,2 53630  53.2194 158.7932 0001265 108.0840 252.0290 15.08832089 28771,6917.905,95.438,540.645,538.894,0.0
53630.0,STARLINK-4598,PAYLOAD,2023-02-25 16:29:27,15.08834575,0.0001571,53.2206,158.2004,104.8112,255.3054,9.4105e-06,-1.38e-06,0.0,0 STARLINK-4598,1 53630U 22104AU  23056.68711900 -.00000138  00000-0  94105-5 0  9991,2 53630  53.2206 158.2004 0001571 104.8112 255.3054 15.08834575 28794,6917.897,95.438,540.849,538.675,0.0
